{
    "links": {
        "self": "http://www.neowsapp.com/rest/v1/neo/3825246?api_key=iIulBulltgU6a56xZRHN4H3l9WmuAYTsLGpBGhQ2"
    },
    "id": "3825246",
    "neo_reference_id": "3825246",
    "name": "(2018 LY5)",
    "designation": "2018 LY5",
    "nasa_jpl_url": "http://ssd.jpl.nasa.gov/sbdb.cgi?sstr=3825246",
    "absolute_magnitude_h": 23.7,
    "estimated_diameter": {
        "kilometers": {
            "estimated_diameter_min": 0.0483676488,
            "estimated_diameter_max": 0.1081533507
        },
        "meters": {
            "estimated_diameter_min": 48.3676488219,
            "estimated_diameter_max": 108.1533506775
        },
        "miles": {
            "estimated_diameter_min": 0.0300542543,
            "estimated_diameter_max": 0.0672033557
        },
        "feet": {
            "estimated_diameter_min": 158.6865169607,
            "estimated_diameter_max": 354.8338390368
        }
    },
    "is_potentially_hazardous_asteroid": false,
    "close_approach_data": [
        {
            "close_approach_date": "2015-05-18",
            "close_approach_date_full": "2015-May-18 09:52",
            "epoch_date_close_approach": 1431942720000,
            "relative_velocity": {
                "kilometers_per_second": "13.6674483159",
                "kilometers_per_hour": "49202.8139372918",
                "miles_per_hour": "30572.7151378689"
            },
            "miss_distance": {
                "astronomical": "0.49899231",
                "lunar": "194.10800859",
                "kilometers": "74648186.7223797",
                "miles": "46384232.36385186"
            },
            "orbiting_body": "Earth"
        },
        {
            "close_approach_date": "2018-06-02",
            "close_approach_date_full": "2018-Jun-02 22:01",
            "epoch_date_close_approach": 1527976860000,
            "relative_velocity": {
                "kilometers_per_second": "5.6567750507",
                "kilometers_per_hour": "20364.3901826156",
                "miles_per_hour": "12653.6401109702"
            },
            "miss_distance": {
                "astronomical": "0.2165359292",
                "lunar": "84.2324764588",
                "kilometers": "32393313.786790804",
                "miles": "20128271.8267449352"
            },
            "orbiting_body": "Earth"
        },
        {
            "close_approach_date": "2021-06-19",
            "close_approach_date_full": "2021-Jun-19 08:51",
            "epoch_date_close_approach": 1624092660000,
            "relative_velocity": {
                "kilometers_per_second": "6.6983425184",
                "kilometers_per_hour": "24114.0330661593",
                "miles_per_hour": "14983.5223793588"
            },
            "miss_distance": {
                "astronomical": "0.2372010563",
                "lunar": "92.2712109007",
                "kilometers": "35484772.784230081",
                "miles": "22049215.3724178778"
            },
            "orbiting_body": "Earth"
        }
    ],
    "orbital_data": {
        "orbit_id": "4",
        "orbit_determination_date": "2018-07-20 06:23:05",
        "first_observation_date": "2018-06-14",
        "last_observation_date": "2018-07-19",
        "data_arc_in_days": 35,
        "observations_used": 24,
        "orbit_uncertainty": "6",
        "minimum_orbit_intersection": ".158038",
        "jupiter_tisserand_invariant": "3.608",
        "epoch_osculation": "2459000.5",
        "eccentricity": ".4495495271194814",
        "semi_major_axis": "2.102710078455201",
        "inclination": "3.740637792860421",
        "ascending_node_longitude": "153.8845586070325",
        "orbital_period": "1113.698209244734",
        "perihelion_distance": "1.157437757016298",
        "perihelion_argument": "102.8956779845501",
        "aphelion_distance": "3.047982399894104",
        "perihelion_time": "2459382.950477381681",
        "mean_anomaly": "236.3738949075121",
        "mean_motion": ".3232473546349129",
        "equinox": "J2000",
        "orbit_class": {
            "orbit_class_type": "AMO",
            "orbit_class_description": "Near-Earth asteroid orbits similar to that of 1221 Amor",
            "orbit_class_range": "1.017 AU < q (perihelion) < 1.3 AU"
        }
    },
    "is_sentry_object": false
}